STARLINK-33904          
1 63887U 25094Z   26022.33335648  .00053469  00000+0  44589-2 0  9997
2 63887  70.0030 351.1833 0003257 277.7422  67.4294 14.98294562  5711
STARLINK-33981          
1 63888U 25094AA  26022.30692024  .00005159  00000+0  44003-3 0  9994
2 63888  70.0027 351.4710 0003037 269.2148  90.8663 14.98312185 40252
STARLINK-33738          
1 63889U 25094AB  26022.02717982  .00211659  00000+0  17012-1 0  9997
2 63889  70.0018 352.0777 0004132 279.9420  80.1273 14.98789986 40437
STARLINK-34116          
1 63890U 25095A   26022.18509774  .00024451  00000+0  89492-3 0  9990
2 63890  42.9995  79.0229 0001031 222.0886 137.9886 15.27586565 40677
STARLINK-34123          
1 63891U 25095B   26022.19923534  .00032437  00000+0  11839-2 0  9998
2 63891  43.0020  79.1292 0001761 289.8867  70.1794 15.27557078 40673
STARLINK-34128          
1 63892U 25095C   26021.45043674  .00044808  00000+0  16291-2 0  9997
2 63892  42.9986  82.9596 0002422 278.5968  81.4610 15.27554174 40568
STARLINK-33972          
1 63893U 25095D   26021.52351844  .00049585  00000+0  17996-2 0  9997
2 63893  43.0002  82.6527 0002140 267.4070  92.6536 15.27574657 40579
STARLINK-33973          
1 63894U 25095E   26022.20679477  .00027891  00000+0  10189-2 0  9992
2 63894  43.0028  78.3162 0001304 283.9811  76.0895 15.27589482 40680
STARLINK-34119          
1 63895U 25095F   26022.19152409  .00048202  00000+0  17489-2 0  9991
2 63895  42.9983  79.0714 0001256 290.9128  69.1589 15.27595030 40673
STARLINK-34143          
1 63896U 25095G   26021.66668981  .00094609  00000+0  34079-2 0  9996
2 63896  42.9998  81.6880 0001645 277.4963 214.3935 15.27539550  5879
STARLINK-33957          
1 63897U 25095H   26022.19537847  .00054384  00000+0  19699-2 0  9999
2 63897  43.0019  79.0976 0003064 279.0731  80.9774 15.27600776 40664
STARLINK-34120          
1 63898U 25095J   26022.20295860  .00035425  00000+0  12910-2 0  9992
2 63898  43.0042  78.2860 0001208 237.9345 122.1389 15.27572342 40686
STARLINK-34134          
1 63899U 25095K   26021.52737082  .00063654  00000+0  23013-2 0  9995
2 63899  43.0017  82.6815 0002811 272.5681  87.4848 15.27599977 40571
STARLINK-34118          
1 63900U 25095L   26021.53379874  .00041803  00000+0  15206-2 0  9997
2 63900  42.9988  82.7318 0002199 278.5802  81.4801 15.27566940 40575
STARLINK-34125          
1 63901U 25095M   26021.51966082  .00043260  00000+0  15706-2 0  9993
2 63901  43.0005  82.6190 0002743 269.9409  90.1129 15.27614780 40562
STARLINK-33955          
1 63902U 25095N   26022.27474616  .00044967  00000+0  16380-2 0  9999
2 63902  43.0031  77.9641 0001449 273.4922  86.5764 15.27492978 40682
