[{"OBJECT_NAME":"STARLINK-33904","OBJECT_ID":"2025-094Z","EPOCH":"2026-01-22T08:00:01.999872","MEAN_MOTION":14.98294562,"ECCENTRICITY":0.00032576,"INCLINATION":70.003,"RA_OF_ASC_NODE":351.1833,"ARG_OF_PERICENTER":277.7422,"MEAN_ANOMALY":67.4294,"EPHEMERIS_TYPE":0,"CLASSIFICATION_TYPE":"U","NORAD_CAT_ID":63887,"ELEMENT_SET_NO":999,"REV_AT_EPOCH":571,"BSTAR":0.0044588657,"MEAN_MOTION_DOT":0.00053469,"MEAN_MOTION_DDOT":0},{"OBJECT_NAME":"STARLINK-33981","OBJECT_ID":"2025-094AA","EPOCH":"2026-01-22T07:21:57.908736","MEAN_MOTION":14.98312185,"ECCENTRICITY":0.0003037,"INCLINATION":70.0027,"RA_OF_ASC_NODE":351.471,"ARG_OF_PERICENTER":269.2148,"MEAN_ANOMALY":90.8663,"EPHEMERIS_TYPE":0,"CLASSIFICATION_TYPE":"U","NORAD_CAT_ID":63888,"ELEMENT_SET_NO":999,"REV_AT_EPOCH":4025,"BSTAR":0.00044002994,"MEAN_MOTION_DOT":5.159e-5,"MEAN_MOTION_DDOT":0},{"OBJECT_NAME":"STARLINK-33738","OBJECT_ID":"2025-094AB","EPOCH":"2026-01-22T00:39:08.336448","MEAN_MOTION":14.98789986,"ECCENTRICITY":0.00041326,"INCLINATION":70.0018,"RA_OF_ASC_NODE":352.0777,"ARG_OF_PERICENTER":279.942,"MEAN_ANOMALY":80.1273,"EPHEMERIS_TYPE":0,"CLASSIFICATION_TYPE":"U","NORAD_CAT_ID":63889,"ELEMENT_SET_NO":999,"REV_AT_EPOCH":4043,"BSTAR":0.017012398,"MEAN_MOTION_DOT":0.00211659,"MEAN_MOTION_DDOT":0},{"OBJECT_NAME":"STARLINK-34116","OBJECT_ID":"2025-095A","EPOCH":"2026-01-22T04:26:32.444736","MEAN_MOTION":15.27586565,"ECCENTRICITY":0.00010318,"INCLINATION":42.9995,"RA_OF_ASC_NODE":79.0229,"ARG_OF_PERICENTER":222.0886,"MEAN_ANOMALY":137.9886,"EPHEMERIS_TYPE":0,"CLASSIFICATION_TYPE":"U","NORAD_CAT_ID":63890,"ELEMENT_SET_NO":999,"REV_AT_EPOCH":4067,"BSTAR":0.00089491765,"MEAN_MOTION_DOT":0.00024451,"MEAN_MOTION_DDOT":0},{"OBJECT_NAME":"STARLINK-34123","OBJECT_ID":"2025-095B","EPOCH":"2026-01-22T04:46:53.933376","MEAN_MOTION":15.27557078,"ECCENTRICITY":0.00017616,"INCLINATION":43.002,"RA_OF_ASC_NODE":79.1292,"ARG_OF_PERICENTER":289.8867,"MEAN_ANOMALY":70.1794,"EPHEMERIS_TYPE":0,"CLASSIFICATION_TYPE":"U","NORAD_CAT_ID":63891,"ELEMENT_SET_NO":999,"REV_AT_EPOCH":4067,"BSTAR":0.0011839012,"MEAN_MOTION_DOT":0.00032437,"MEAN_MOTION_DDOT":0},{"OBJECT_NAME":"STARLINK-34128","OBJECT_ID":"2025-095C","EPOCH":"2026-01-21T10:48:37.734336","MEAN_MOTION":15.27554174,"ECCENTRICITY":0.00024224,"INCLINATION":42.9986,"RA_OF_ASC_NODE":82.9596,"ARG_OF_PERICENTER":278.5968,"MEAN_ANOMALY":81.461,"EPHEMERIS_TYPE":0,"CLASSIFICATION_TYPE":"U","NORAD_CAT_ID":63892,"ELEMENT_SET_NO":999,"REV_AT_EPOCH":4056,"BSTAR":0.0016291463,"MEAN_MOTION_DOT":0.00044808,"MEAN_MOTION_DDOT":0},{"OBJECT_NAME":"STARLINK-33972","OBJECT_ID":"2025-095D","EPOCH":"2026-01-21T12:33:51.993216","MEAN_MOTION":15.27574657,"ECCENTRICITY":0.00021402,"INCLINATION":43.0002,"RA_OF_ASC_NODE":82.6527,"ARG_OF_PERICENTER":267.407,"MEAN_ANOMALY":92.6536,"EPHEMERIS_TYPE":0,"CLASSIFICATION_TYPE":"U","NORAD_CAT_ID":63893,"ELEMENT_SET_NO":999,"REV_AT_EPOCH":4057,"BSTAR":0.0017995669,"MEAN_MOTION_DOT":0.00049585,"MEAN_MOTION_DDOT":0},{"OBJECT_NAME":"STARLINK-33973","OBJECT_ID":"2025-095E","EPOCH":"2026-01-22T04:57:47.068128","MEAN_MOTION":15.27589482,"ECCENTRICITY":0.00013045,"INCLINATION":43.0028,"RA_OF_ASC_NODE":78.3162,"ARG_OF_PERICENTER":283.9811,"MEAN_ANOMALY":76.0895,"EPHEMERIS_TYPE":0,"CLASSIFICATION_TYPE":"U","NORAD_CAT_ID":63894,"ELEMENT_SET_NO":999,"REV_AT_EPOCH":4068,"BSTAR":0.0010189407,"MEAN_MOTION_DOT":0.00027891,"MEAN_MOTION_DDOT":0},{"OBJECT_NAME":"STARLINK-34119","OBJECT_ID":"2025-095F","EPOCH":"2026-01-22T04:35:47.681376","MEAN_MOTION":15.2759503,"ECCENTRICITY":0.00012566,"INCLINATION":42.9983,"RA_OF_ASC_NODE":79.0714,"ARG_OF_PERICENTER":290.9128,"MEAN_ANOMALY":69.1589,"EPHEMERIS_TYPE":0,"CLASSIFICATION_TYPE":"U","NORAD_CAT_ID":63895,"ELEMENT_SET_NO":999,"REV_AT_EPOCH":4067,"BSTAR":0.0017489274,"MEAN_MOTION_DOT":0.00048202,"MEAN_MOTION_DDOT":0},{"OBJECT_NAME":"STARLINK-34143","OBJECT_ID":"2025-095G","EPOCH":"2026-01-21T16:00:01.999584","MEAN_MOTION":15.2753955,"ECCENTRICITY":0.00016456,"INCLINATION":42.9998,"RA_OF_ASC_NODE":81.688,"ARG_OF_PERICENTER":277.4963,"MEAN_ANOMALY":214.3935,"EPHEMERIS_TYPE":0,"CLASSIFICATION_TYPE":"U","NORAD_CAT_ID":63896,"ELEMENT_SET_NO":999,"REV_AT_EPOCH":587,"BSTAR":0.0034078705,"MEAN_MOTION_DOT":0.00094609,"MEAN_MOTION_DDOT":0},{"OBJECT_NAME":"STARLINK-33957","OBJECT_ID":"2025-095H","EPOCH":"2026-01-22T04:41:20.699808","MEAN_MOTION":15.27600776,"ECCENTRICITY":0.00030642,"INCLINATION":43.0019,"RA_OF_ASC_NODE":79.0976,"ARG_OF_PERICENTER":279.0731,"MEAN_ANOMALY":80.9774,"EPHEMERIS_TYPE":0,"CLASSIFICATION_TYPE":"U","NORAD_CAT_ID":63897,"ELEMENT_SET_NO":999,"REV_AT_EPOCH":4066,"BSTAR":0.0019698842,"MEAN_MOTION_DOT":0.00054384,"MEAN_MOTION_DDOT":0},{"OBJECT_NAME":"STARLINK-34120","OBJECT_ID":"2025-095J","EPOCH":"2026-01-22T04:52:15.623040","MEAN_MOTION":15.27572342,"ECCENTRICITY":0.00012086,"INCLINATION":43.0042,"RA_OF_ASC_NODE":78.286,"ARG_OF_PERICENTER":237.9345,"MEAN_ANOMALY":122.1389,"EPHEMERIS_TYPE":0,"CLASSIFICATION_TYPE":"U","NORAD_CAT_ID":63898,"ELEMENT_SET_NO":999,"REV_AT_EPOCH":4068,"BSTAR":0.001290966,"MEAN_MOTION_DOT":0.00035425,"MEAN_MOTION_DDOT":0},{"OBJECT_NAME":"STARLINK-34134","OBJECT_ID":"2025-095K","EPOCH":"2026-01-21T12:39:24.838848","MEAN_MOTION":15.27599977,"ECCENTRICITY":0.00028119,"INCLINATION":43.0017,"RA_OF_ASC_NODE":82.6815,"ARG_OF_PERICENTER":272.5681,"MEAN_ANOMALY":87.4848,"EPHEMERIS_TYPE":0,"CLASSIFICATION_TYPE":"U","NORAD_CAT_ID":63899,"ELEMENT_SET_NO":999,"REV_AT_EPOCH":4057,"BSTAR":0.0023012509,"MEAN_MOTION_DOT":0.00063654,"MEAN_MOTION_DDOT":0},{"OBJECT_NAME":"STARLINK-34118","OBJECT_ID":"2025-095L","EPOCH":"2026-01-21T12:48:40.211136","MEAN_MOTION":15.2756694,"ECCENTRICITY":0.00021992,"INCLINATION":42.9988,"RA_OF_ASC_NODE":82.7318,"ARG_OF_PERICENTER":278.5802,"MEAN_ANOMALY":81.4801,"EPHEMERIS_TYPE":0,"CLASSIFICATION_TYPE":"U","NORAD_CAT_ID":63900,"ELEMENT_SET_NO":999,"REV_AT_EPOCH":4057,"BSTAR":0.0015205922,"MEAN_MOTION_DOT":0.00041803,"MEAN_MOTION_DDOT":0},{"OBJECT_NAME":"STARLINK-34125","OBJECT_ID":"2025-095M","EPOCH":"2026-01-21T12:28:18.694848","MEAN_MOTION":15.2761478,"ECCENTRICITY":0.00027431,"INCLINATION":43.0005,"RA_OF_ASC_NODE":82.619,"ARG_OF_PERICENTER":269.9409,"MEAN_ANOMALY":90.1129,"EPHEMERIS_TYPE":0,"CLASSIFICATION_TYPE":"U","NORAD_CAT_ID":63901,"ELEMENT_SET_NO":999,"REV_AT_EPOCH":4056,"BSTAR":0.0015705925,"MEAN_MOTION_DOT":0.0004326,"MEAN_MOTION_DDOT":0},{"OBJECT_NAME":"STARLINK-33955","OBJECT_ID":"2025-095N","EPOCH":"2026-01-22T06:35:38.068224","MEAN_MOTION":15.27492978,"ECCENTRICITY":0.00014493,"INCLINATION":43.0031,"RA_OF_ASC_NODE":77.9641,"ARG_OF_PERICENTER":273.4922,"MEAN_ANOMALY":86.5764,"EPHEMERIS_TYPE":0,"CLASSIFICATION_TYPE":"U","NORAD_CAT_ID":63902,"ELEMENT_SET_NO":999,"REV_AT_EPOCH":4068,"BSTAR":0.0016379734,"MEAN_MOTION_DOT":0.00044967,"MEAN_MOTION_DDOT":0}]
